{
  "norad_id": 68771,
  "name": "STARLINK-36759",
  "history": [
    {
      "epoch": "2026-04-27T10:32:28.546656Z",
      "apogee_km": 288.75575289962126,
      "perigee_km": 288.07203144011964,
      "latitude_deg": 5.343485069411138e-05,
      "longitude_deg": 139.3028323849259,
      "height_km": 291.5970256661453,
      "semi_major_axis_km": 6666.55089216987,
      "eccentricity": 5.128e-05,
      "inclination_deg": 97.2795,
      "raan_deg": 152.8508,
      "arg_perigee_deg": 88.1524,
      "mean_anomaly_deg": 271.9811,
      "mean_motion_rev_day": 15.94964289
    }
  ]
}