STARLINK-36759          
1 68771U 26086F   26117.43921929 -.00750026  18163-3 -19534-2 0  9995
2 68771  97.2795 152.8508 0000512  88.1524 271.9811 15.94964289  1169
